OBJECT_NAME,OBJECT_ID,EPOCH,MEAN_MOTION,ECCENTRICITY,INCLINATION,RA_OF_ASC_NODE,ARG_OF_PERICENTER,MEAN_ANOMALY,EPHEMERIS_TYPE,CLASSIFICATION_TYPE,NORAD_CAT_ID,ELEMENT_SET_NO,REV_AT_EPOCH,BSTAR,MEAN_MOTION_DOT,MEAN_MOTION_DDOT
LAOSAT 1,2015-067A,2026-06-27T01:08:26.318112,1.00271412,.0002627,0.0514,212.6855,198.5678,9.5284,0,U,41034,999,3895,0,-.331E-5,0
TELSTAR 12V,2015-068A,2026-06-27T03:52:49.366272,1.00269832,.0002534,0.0189,336.7087,113.9005,227.8784,0,U,41036,999,3872,0,-.108E-5,0
ELEKTRO-L 2,2015-074A,2026-06-25T22:47:48.794784,1.00271163,.00007276,6.7170,70.4166,286.6211,244.4527,0,U,41105,999,3859,0,-.113E-5,0
COSMOS 2513,2015-075A,2026-06-26T07:47:40.693920,1.00270544,.0003503,0.0753,102.3543,334.7437,34.5259,0,U,41121,999,3864,0,-.127E-5,0
EXPRESS-AMU1,2015-082A,2026-06-27T04:07:25.465728,1.00272353,.0002992,0.0124,51.1735,45.4720,276.5715,0,U,41191,999,3836,0,.167E-5,0
GAOFEN-4,2015-083A,2026-06-25T21:39:16.789824,1.00271078,.00040511,0.3805,83.9226,113.8387,146.7998,0,U,41194,999,3861,0,-.324E-5,0
BELINTERSAT-1,2016-001A,2026-06-27T04:11:47.548032,1.00270964,.0001732,0.0028,93.8210,340.6058,315.3004,0,U,41238,999,3833,0,.119E-5,0
IRNSS-1E,2016-003A,2026-06-25T14:21:38.812032,1.00274592,.00190622,33.2517,59.6282,179.1130,2.2203,0,U,41241,999,3816,0,-.319E-5,0
EUTELSAT 9B,2016-005A,2026-06-27T03:59:41.208288,1.00270201,.0001773,0.0465,63.7257,2.8143,277.6626,0,U,41310,999,3821,0,.73E-6,0
SES-9,2016-013A,2026-06-27T01:02:41.868096,1.00269496,.0002537,0.0136,327.2987,117.6680,314.1654,0,U,41380,999,3753,0,-.333E-5,0
EUTELSAT 65 WEST A,2016-014A,2026-06-27T04:25:38.698752,1.00271561,.0002759,0.0464,356.5132,96.8218,183.1817,0,U,41382,999,3762,0,-.265E-5,0
IRNSS-1F,2016-015A,2026-06-26T22:58:24.797280,1.00272507,.0017444,5.3728,96.5595,184.3952,11.1263,0,U,41384,999,3776,0,.164E-5,0
BEIDOU-2 IGSO-6,2016-021A,2026-06-26T02:38:38.671584,1.00258926,.0057558,60.2385,37.9495,231.0163,137.2672,0,U,41434,999,3757,0,-.145E-5,0
IRNSS-1G,2016-027A,2026-06-26T20:11:51.772416,1.00282495,.0005784,5.2185,97.2514,4.3323,245.6773,0,U,41469,999,3727,0,-.327E-5,0
JCSAT-2B,2016-028A,2026-06-27T03:16:38.706240,1.00271660,.000129,0.0036,85.4080,13.4226,19.5866,0,U,41471,999,3723,0,-.154E-5,0
THAICOM 8,2016-031A,2026-06-27T04:19:31.806336,1.00272227,.0003825,0.0726,48.2454,18.4607,351.9596,0,U,41552,999,3681,0,-.11E-5,0
INTELSAT 31 (IS-31),2016-035A,2026-06-27T03:29:49.102080,1.00271659,.0000598,0.0144,287.9612,337.3395,327.3625,0,U,41581,999,3678,0,-.139E-5,0
BEIDOU-2 G7,2016-037A,2026-06-27T02:45:54.205344,1.00272312,.0006846,1.7449,69.4127,1.5210,356.3270,0,U,41586,999,698,0,-.343E-5,0
ABS-2A (MONGOLSAT-1),2016-038A,2026-06-27T02:35:47.673024,1.00267072,.0001746,0.0262,6.4067,35.6984,346.8174,0,U,41588,999,3680,0,0,0
EUTELSAT 117 WEST B,2016-038B,2026-06-27T01:41:06.029088,1.00274127,.0000451,0.0096,147.4865,108.1501,287.8476,0,U,41589,999,3676,0,0,0
BRISAT,2016-039A,2026-06-27T03:48:38.902176,1.00273599,.0002123,0.0191,325.5043,125.5768,31.8459,0,U,41591,999,3671,0,-.184E-5,0
ECHOSTAR 18,2016-039B,2026-06-27T04:17:38.757120,1.00268438,.0001807,0.0281,21.2244,78.6813,178.4315,0,U,41592,999,3672,0,0,0
MUOS-5,2016-041A,2026-06-27T03:27:26.828064,1.00273351,.0198017,2.1820,301.8504,260.6014,19.4805,0,U,41622,999,3718,0,-.133E-5,0
TIANTONG-1 1,2016-048A,2026-06-27T02:43:24.443904,1.00271076,.0005922,3.8680,43.5006,49.3638,324.6397,0,U,41725,999,3637,0,-.309E-5,0
JCSAT-16,2016-050A,2026-06-26T21:47:34.039104,1.00271139,.0001301,0.0179,14.0448,89.4455,282.3758,0,U,41729,999,3616,0,-.24E-5,0
USA 270,2016-052A,2026-06-25T15:01:47.554176,0.99500516,.0000668,4.2178,77.0981,157.1810,56.2495,0,U,41744,999,2821,0,-.284E-5,0
USA 271,2016-052B,2026-06-25T18:13:09.824736,0.99833204,.0001955,4.1909,77.1447,290.7679,281.9940,0,U,41745,999,2800,0,-.236E-5,0
INTELSAT 36 (IS-36),2016-053A,2026-06-26T20:19:51.545568,1.00266822,.00017395,0.0108,13.4633,328.7334,306.2396,0,U,41747,999,3605,0,-.12E-6,0
INSAT-3DR,2016-054A,2026-06-27T02:35:32.698176,1.00272424,.0010053,0.1309,86.1866,186.7850,115.1092,0,U,41752,999,3591,0,-.65E-6,0
GSAT-18,2016-060A,2026-06-27T00:52:50.314080,1.00272227,.0005827,0.0825,93.4782,344.7424,284.1158,0,U,41793,999,3562,0,-.65E-6,0
SKY MUSTER 2 (NBN1B),2016-060B,2026-06-27T04:38:08.828736,1.00271058,.0001746,0.0190,334.6777,114.5682,40.4013,0,U,41794,999,3562,0,-.233E-5,0
HIMAWARI-9,2016-064A,2026-06-26T23:29:14.341344,1.00271011,.0001158,0.0171,44.9539,68.4076,294.8031,0,U,41836,999,3530,0,-.263E-5,0
